E-ST@R-II               
1 41459U 16025D   22172.38959080  .00009741  00000+0  42396-3 0  9990
2 41459  98.1879 337.8333 0144265 255.6624 102.8587 15.13489057338096
AAUSAT 4                
1 41460U 16025E   22172.42567296  .00018566  00000+0  71274-3 0  9993
2 41460  98.1793 344.1064 0125208 231.4158 127.5854 15.19431881338544
BEESAT-4                
1 41619U 16040W   22171.38308827  .00012785  00000+0  42554-3 0  9999
2 41619  97.2161 221.9339 0011407 106.6576 253.5919 15.31205981321175
RAVAN                   
1 41849U 16067B   22171.77881177  .00003005  00000+0  24149-3 0  9995
2 41849  98.0012 308.8523 0016069 336.6827  23.3665 15.00746774306492
CELTEE 1                
1 41850U 16067C   22171.65204903  .00002776  00000+0  23742-3 0  9992
2 41850  97.9989 303.7588 0007159 340.0686  20.0255 14.98476316306231
OPTICUBE 04             
1 41851U 16067D   22172.16842471  .00001415  00000+0  12576-3 0  9990
2 41851  97.9962 303.3380 0007675 335.2769  24.8083 14.97788269306266
AEROCUBE 8D             
1 41852U 16067E   22171.77546832  .00002791  00000+0  23930-3 0  9993
2 41852  97.9952 302.9409 0007873 338.3985  21.6903 14.98368878306196
AEROCUBE 8C             
1 41853U 16067F   22171.75658003  .00002155  00000+0  18612-3 0  9991
2 41853  97.9939 302.7463 0008976 333.0325  27.0429 14.98335247306181
PROMETHEUS 2-1          
1 41854U 16067G   22171.78971857  .00004344  00000+0  35860-3 0  9996
2 41854  97.9989 303.8504 0009073 348.3282  11.7728 14.99516881306240
PROMETHEUS 2-3          
1 41855U 16067H   22172.11598766  .00004406  00000+0  36353-3 0  9996
2 41855  97.9967 304.2620 0007955 348.1354  11.9680 14.99528828306294
INS-1B                  
1 41954U 17008G   22171.90276164  .00013302  00000+0  43794-3 0  9995
2 41954  97.2570 231.7164 0007061 209.2143 150.8705 15.31591135297271
BGUSAT                  
1 41999U 17008BD  22172.49687571  .00028891  00000+0  69892-3 0  9993
2 41999  97.2804 242.8846 0005801 189.1712 170.9429 15.41072479297269
DIDO-2                  
1 42000U 17008BE  22171.89316282  .00006278  00000+0  22823-3 0  9996
2 42000  97.2558 231.0996 0006049 236.9454 123.1206 15.28595353296598
PEASSS                  
1 42015U 17008BV  22171.73011956  .00011451  00000+0  37632-3 0  9998
2 42015  97.2626 234.7645 0004276 224.9083 135.1813 15.31700238297273
AL-FARABI 1             
1 42016U 17008BW  22171.80985835  .00016359  00000+0  48964-3 0  9995
2 42016  97.2691 237.8630 0004052 214.1797 145.9186 15.34603451297565
NAYIF-1 (EO-88)         
1 42017U 17008BX  22172.21579026  .00015635  00000+0  46592-3 0  9994
2 42017  97.2683 238.2750 0004338 210.4517 149.6475 15.34752390297650
UCLSAT                  
1 42765U 17036A   22171.85591455  .00012105  00000+0  42059-3 0  9997
2 42765  97.1968 214.4135 0007589 319.6601  40.4077 15.29861848278372
LITUANICASAT-2          
1 42768U 17036D   22171.92067347  .00025613  00000+0  73651-3 0  9996
2 42768  97.2052 217.2015 0008134 292.7576  67.2808 15.35750475277780
AALTO-1                 
1 42775U 17036L   22171.84385960  .00007051  00000+0  27914-3 0  9996
2 42775  97.1970 209.4624 0010970 320.8117  39.2327 15.25678184277296
URSA MAIOR              
1 42776U 17036M   22171.82357250  .00007263  00000+0  28273-3 0  9990
2 42776  97.1983 210.1740 0010606 319.6580  40.3871 15.26236828277322
COMPASS 2               
1 42777U 17036N   22172.34513188  .00017741  00000+0  56332-3 0  9992
2 42777  97.2042 216.9723 0007449 299.2017  60.8480 15.32686046277741
DIAMOND RED             
1 42783U 17036U   22171.85791511  .00008799  00000+0  32890-3 0  9998
2 42783  97.1989 212.5377 0009020 326.0726  33.9936 15.27535200277462
PEGASUS                 
1 42784U 17036V   22171.84534780  .00010933  00000+0  39069-3 0  9999
2 42784  97.1984 213.6671 0008523 322.5185  37.5460 15.28961945277534
DIAMOND GREEN           
1 42785U 17036W   22171.85632432  .00008407  00000+0  31446-3 0  9998
2 42785  97.1992 212.6012 0008921 327.7010  32.3682 15.27529830277539
DIAMOND BLUE            
1 42786U 17036X   22171.85531627  .00008980  00000+0  33594-3 0  9995
2 42786  97.1992 212.5925 0008936 328.1587  31.9111 15.27501840277535
NUDTSAT                 
1 42787U 17036Y   22171.88720764  .00020008  00000+0  61327-3 0  9991
2 42787  97.2026 217.8261 0006585 309.7272  50.3391 15.33792869277625
SUCHAI                  
1 42788U 17036Z   22171.83742480  .00013000  00000+0  43931-3 0  9991
2 42788  97.1992 215.2989 0007573 316.5164  43.5480 15.30746242277703
SKCUBE                  
1 42789U 17036AA  22171.90110430  .00011546  00000+0  39966-3 0  9990
2 42789  97.1990 214.8249 0007700 317.9532  42.1117 15.29993794277607
VZLUSAT-1               
1 42790U 17036AB  22171.89500606  .00018573  00000+0  57207-3 0  9993
2 42790  97.2017 217.8016 0006282 306.4094  53.6569 15.33654935277777
ROBUSTA-1B              
1 42792U 17036AD  22171.85566073  .00013142  00000+0  44746-3 0  9992
2 42792  97.1990 215.3446 0007251 318.1960  41.8727 15.30503932277645
CICERO 6                
1 42793U 17036AE  22171.87821038  .00007632  00000+0  28658-3 0  9991
2 42793  97.1970 213.1074 0007551 327.3734  32.7039 15.27439829277599
CORVUS BC2              
1 42846U 17042X   22171.83411965  .00001195  00000+0  12019-3 0  9999
2 42846  97.4228  28.9525 0009233 355.8970   4.2173 14.92906587268782
CORVUS BC1              
1 42847U 17042Y   22171.84745044  .00001007  00000+0  10183-3 0  9991
2 42847  97.4229  29.2715 0008870 355.1621   4.9512 14.93011093268796
MIRATA                  
1 43015U 17073C   22171.65876551  .00005772  00000+0  42049-3 0  9999
2 43015  97.6741  66.8484 0238947 170.2030 190.3969 14.83987128247743
MAKERSAT 0              
1 43016U 17073D   22172.16580065  .00003159  00000+0  23722-3 0  9993
2 43016  97.6760  66.9101 0245691 172.8801 187.6011 14.82321023247731
AEROCUBE 7B (OCSD B)    
1 43042U 17071F   22171.87095371  .00209799  00000+0  96213-3 0  9991
2 43042  51.6326  25.0410 0005085 210.5609 149.5098 15.82517095256238
AEROCUBE 7C (OCSD C)    
1 43043U 17071G   22171.85115922  .00171011  00000+0  89704-3 0  9997
2 43043  51.6306  27.1277 0004429 205.2005 154.8781 15.79721228256175
ASGARDIA 1              
1 43049U 17071N   22171.86085352  .00111926  00000+0  75804-3 0  9992
2 43049  51.6314  29.6554 0003074 183.6207 176.4770 15.74157826256139
PROPCUBE 2 (FAUNA)      
1 43052U 17071R   22172.01446839  .00227239  00000+0  95644-3 0  9994
2 43052  51.6252  18.5591 0004502 222.9353 137.1299 15.84289614256297
CORVUS BC3              
1 43118U 18004H   22171.77576238  .00006742  00000+0  25386-3 0  9993
2 43118  97.3621 244.4388 0008730   2.0641 358.0633 15.27398869246728
MICROMAS-2A             
1 43131U 18004W   22171.73956384  .00021974  00000+0  61934-3 0  9991
2 43131  97.3751 251.0249 0004851 346.4631  13.6482 15.36432030247086
SPACEBEE-4              
1 43139U 18004AE  22171.80008177  .00047561  00000+0  10157-2 0  9995
2 43139  97.3843 256.0309 0002721 319.2878  40.8167 15.44712009247362
SPACEBEE-3              
1 43140U 18004AF  22171.85362170  .00100576  00000+0  14795-2 0  9996
2 43140  97.3882 259.8739 0002723 252.8848 107.2108 15.55103420247597
SPACEBEE-2              
1 43141U 18004AG  22171.82780771  .00141187  00000+0  16964-2 0  9998
2 43141  97.3892 261.3795 0003992 242.4324 117.6528 15.60389600247674
SPACEBEE-1              
1 43142U 18004AH  22172.54458562  .00220936  00000+0  18363-2 0  9994
2 43142  97.3883 263.9087 0006705 236.7410 123.3210 15.69457875247888
CICERO 7                
1 43143U 18004AJ  22171.79045896  .00015558  00000+0  47932-3 0  9990
2 43143  97.3730 250.5988 0004739   3.1642 356.9630 15.33698843247085
GOMX-4B                 
1 43196U 18015E   22171.82350174  .00005376  00000+0  20416-3 0  9997
2 43196  97.5342 311.2356 0018107  49.4522 310.8289 15.27107799243670
GOMX-4A                 
1 43197U 18015F   22172.58065196  .00007422  00000+0  26628-3 0  9994
2 43197  97.5342 312.8090 0017605  46.7317  17.3273 15.28855269243852
AEROCUBE 12A            
1 43556U 18046C   22172.00853968  .00019023  00000+0  48754-3 0  9990
2 43556  51.6352 166.5355 0008440  47.0370 313.1321 15.39358210219862
AEROCUBE 12B            
1 43557U 18046D   22172.01479969  .00014434  00000+0  39658-3 0  9991
2 43557  51.6364 171.0092 0008389  44.6984 315.4674 15.37430579219752
SURFSAT                 
1 43614U 18070B   22171.86075024  .00042720  00000+0  62238-3 0  9997
2 43614  93.0296 100.1971 0011419  26.0558 334.1277 15.55503912211591
CP7 (DAVE)              
1 43615U 18070C   22171.87222931  .00036802  00000+0  56131-3 0  9999
2 43615  93.0300 100.0529 0011912  26.9547 333.2331 15.54261330211563
ELFIN-B                 
1 43616U 18070D   22171.76764535  .00095581  00000+0  85925-3 0  9991
2 43616  93.0197 101.2130 0008062  32.7853 327.3916 15.67909464211874
ELFIN-A                 
1 43617U 18070E   22171.89377183  .00111271  00000+0  90510-3 0  9996
2 43617  93.0261 102.6254 0006651  35.1960 324.9749 15.70320242211947
CUBEBEL-1 (BSUSAT-1)    
1 43666U 18083E   22172.54523284  .00009650  00000+0  40858-3 0  9999
2 43666  97.4205 201.1841 0011673 325.8155 193.6689 15.23320890202108
CICERO 10               
1 43690U 18088A   22171.84531599  .00007472  00000+0  29781-3 0  9993
2 43690  85.0362 314.0850 0015099 130.3749 229.8815 15.24916644200256
IRVINE01                
1 43693U 18088D   22171.78437556  .00042117  00000+0  11167-2 0  9990
2 43693  85.0286 308.5882 0013242 101.3812 258.8927 15.38058267200736
PROXIMA I               
1 43694U 18088E   22171.80172189  .00009444  00000+0  35830-3 0  9992
2 43694  85.0297 310.7976 0019160 101.4144 258.9254 15.26521556200481
PROXIMA II              
1 43696U 18088G   22171.80192302  .00009375  00000+0  35589-3 0  9997
2 43696  85.0297 310.8157 0019213 101.4293 258.9110 15.26500518200474
